TJS-9                   
1 50574U 21135A   26054.55509802 -.00000298  00000+0  00000+0 0  9992
2 50574   0.0148 151.7014 0004248   4.6126 334.1834  1.00270674 15292
GOES 18                 
1 51850U 22021A   26054.57208477  .00000098  00000+0  00000+0 0  9998
2 51850   0.0160  78.5933 0000446 288.0232 215.7733  1.00270768  5455
ZHONGXING-6D            
1 52255U 22038A   26054.22716293 -.00000351  00000+0  00000+0 0  9991
2 52255   0.0678 259.2933 0002555  44.7200  55.9418  1.00273513 14288
NILESAT 301             
1 52817U 22061A   26054.31258634 -.00000056  00000+0  00000+0 0  9993
2 52817   0.0516 322.3187 0005688  17.3316 279.0644  1.00271566 13599
CMS-02 (GSAT 24)        
1 52903U 22067A   26054.54435131 -.00000164  00000+0  00000+0 0  9999
2 52903   0.0691 263.7158 0003123  23.0940 145.5618  1.00272899 13468
MEASAT 3D               
1 52904U 22067B   26054.60499100 -.00000241  00000+0  00000+0 0  9999
2 52904   0.0542 303.1356 0003521  16.2270 143.3937  1.00272678 13516
SES-22                  
1 52933U 22071A   26054.57173810  .00000106  00000+0  00000+0 0  9998
2 52933   0.0187 113.8743 0001147 198.9020 267.4736  1.00270684  6389
WFOV (USA 332)          
1 52940U 22073A   26054.52530754 -.00000362  00000+0  00000+0 0  9992
2 52940   3.4177  80.0036 0001772 197.1225 184.6515  1.00272256 13239
TIANLIAN 2-03           
1 53100U 22078A   26054.31605303  .00000074  00000+0  00000+0 0  9995
2 53100   0.3821  72.4499 0003455 248.0895 317.0100  1.00272576 13403
SBIRS GEO-6 (USA 336)   
1 53355U 22092A   26054.55739256 -.00000289  00000+0  00000+0 0  9993
2 53355   3.4536 315.6905 0002272   7.3780 170.0114  1.00270600 13094
EUTELSAT KONNECT VHTS   
1 53765U 22110A   26054.38582002  .00000018  00000+0  00000+0 0  9994
2 53765   0.0577 102.1886 0003081 201.6686 350.9704  1.00268794  5699
ZHONGXING-1E            
1 53813U 22112A   26054.64247297 -.00000148  00000+0  00000+0 0  9998
2 53813   0.0106 157.4217 0003760 137.5837 171.2039  1.00270098 12717
SES-20                  
1 53960U 22123A   26054.57884480 -.00000100  00000+0  00000+0 0  9994
2 53960   0.0123 106.7727 0001083 319.4812 192.4663  1.00270525 12399
SES-21                  
1 53961U 22123B   26054.57329810  .00000070  00000+0  00000+0 0  9991
2 53961   0.0255  61.1668 0000994 275.2738 252.3864  1.00271203  6071
GALAXY 33 (G-33)        
1 54026U 22128A   26054.57286477  .00000080  00000+0  00000+0 0  9991
2 54026   0.0184 109.2481 0001875 221.6035 255.8226  1.00271965 12607
GALAXY 34 (G-34)        
1 54027U 22128B   26054.57373145  .00000060  00000+0  00000+0 0  9999
2 54027   0.0109 121.2296 0001573 214.7713 254.9775  1.00273020 12775
ANGOSAT 2               
1 54033U 22131A   26053.32015336  .00000140  00000+0  00000+0 0  9996
2 54033   0.0112 185.2394 0000319 268.4463 196.7790  1.00271857 12327
EUTELSAT HOTBIRD 13F    
1 54048U 22134A   26054.31657303  .00000089  00000+0  00000+0 0  9993
2 54048   0.0586 292.4643 0002138  62.1802 285.5165  1.00271757 12235
LDPE-2                  
1 54219U 22144A   26054.54660464 -.00000309  00000+0  00000+0 0  9997
2 54219   5.3655  64.3750 0000928 201.5331 178.3466  1.00561069 10707
EUTELSAT HOTBIRD 13G    
1 54225U 22146A   26054.31657303  .00000089  00000+0  00000+0 0  9993
2 54225   0.0535 240.6951 0001842 301.4152  98.0478  1.00275235  6323
ZHONGXING-19            
1 54230U 22148A   26054.56029804  .00000000  00000+0  00000+0 0  9990
2 54230   0.0180 127.0515 0007718 127.8804 263.6157  1.00270792 12246
GALAXY 31 (G-31)        
1 54243U 22153A   26054.50396444  .00000015  00000+0  00000+0 0  9997
2 54243   0.0096 146.0566 0001517 190.7267 237.0139  1.00271727  5994
GALAXY 32 (G-32)        
1 54244U 22153B   26054.36727326  .00000000  00000+0  00000+0 0  9993
2 54244   0.0180 104.9651 0002966 239.1817 210.3313  1.00270023 12001
EUTELSAT 10B            
1 54259U 22157A   26054.31596637  .00000069  00000+0  00000+0 0  9992
2 54259   0.0567 101.5021 0001032  25.5742 149.8509  1.00266893 11885
GALAXY 35 (G-35)        
1 54741U 22170A   26054.50951113 -.00000161  00000+0  00000+0 0  9992
2 54741   0.0092 149.6389 0002072 178.3308 275.7357  1.00271995 11759
GALAXY 36 (G-36)        
1 54742U 22170B   26054.49558798 -.00000184  00000+0  00000+0 0  9998
2 54742   0.0238 210.3974 0001657 176.7518 215.6320  1.00271426 11630
METEOSAT-12 (MTG-I1)    
1 54743U 22170C   26054.31388635 -.00000006  00000+0  00000+0 0  9994
2 54743   0.7326  27.7021 0002033 273.5273 324.6214  1.00272732 11838
SHIJIAN-23 (SJ-23)      
1 55131U 23002A   26054.75753428 -.00000345  00000+0  00000+0 0  9991
2 55131   3.4248  79.7718 0005815 256.8398 212.4396  1.00492097 11378
APSTAR-6E               
1 55239U 23005A   26054.19775249 -.00000316  00000+0  00000+0 0  9994
2 55239   0.0653 258.9325 0001954  34.8361  64.5138  1.00269482 17544
USA 342                 
1 55263U 23008A   26053.81952909  .00000141  00000+0  00000+0 0  9997
2 55263   0.0120 170.4201 0000262 145.6981 155.4246  1.00269375 11377
LDPE-3A                 
1 55264U 23008B   26054.57407811  .00000078  00000+0  00000+0 0  9998
2 55264   2.0508  83.1629 0000270 133.0643  16.8730  0.99995891 10686
ELEKTRO-L 4             
1 55506U 23016A   26054.11431880 -.00000056  00000+0  00000+0 0  9996
2 55506   0.0766  94.1614 0001906 189.7859  76.0113  1.00270919 11199
AMAZONAS NEXUS          
1 55508U 23017A   26053.51740762 -.00000278  00000+0  00000+0 0  9990
2 55508   0.0375  46.9973 0003928 308.6404 282.0317  1.00269125  5896
ZHONGXING-26            
1 55686U 23023A   26053.05503882 -.00000349  00000+0  00000+0 0  9992
2 55686   0.0618  74.3433 0002744 319.3809 263.1403  1.00273218 11073
LUCH-5X (OLYMP-K 2)     
1 55841U 23031A   26054.74998865  .00000033  00000+0  00000+0 0  9999
2 55841   0.0267  90.9759 0001079  56.4963 338.1292  1.00272382 10801
GAOFEN-13 02            
1 55912U 23036A   26054.55726469 -.00000217  00000+0  00000+0 0  9996
2 55912   1.0366 346.5907 0005127 331.5604 184.1092  1.00269606 10951
SES-18                  
1 55970U 23038A   26054.57884480 -.00000100  00000+0  00000+0 0  9993
2 55970   0.0589 275.4277 0002625  22.6376 320.6618  1.00272586 10968
SES-19                  
1 55971U 23038B   26054.57251810  .00000089  00000+0  00000+0 0  9994
2 55971   0.0435 297.5241 0001807  33.9019 253.2108  1.00271051 10944
INTELSAT 40E (IS-40E)   
1 56174U 23052A   26054.35530809 -.00000172  00000+0  00000+0 0  9994
2 56174   0.0095 152.1859 0000762 156.4521 241.4996  1.00271402 10686
VIASAT-3 F1             
1 56370U 23060A   26054.22505259 -.00000183  00000+0  00000+0 0  9990
2 56370   0.0110 122.4088 0000304 280.5621 102.2400  1.00271862 10299
ARCTURUS                
1 56371U 23060B   26053.04463876 -.00000057  00000+0  00000+0 0  9998
2 56371   2.4784  81.4194 0000092 285.3094 233.7255  1.00269793 10306
GS-1                    
1 56372U 23060C   26053.75972881 -.00000161  00000+0  00000+0 0  9994
2 56372   2.4308  81.2136 0004785 261.4174 165.7716  1.00300958  6399
BEIDOU-3 G4             
1 56564U 23066A   26054.55960470 -.00000110  00000+0  00000+0 0  9997
2 56564   0.6663 309.6056 0001698 173.8468  31.4688  1.00271827 10255
ARABSAT-7B (BADR-8)     
1 56757U 23075A   26054.31917304  .00000146  00000+0  00000+0 0  9991
2 56757   0.0780  30.7299 0005239 317.0358 306.3290  1.00271597  9973
NVS-01 (IRNSS-1J)       
1 56759U 23076A   26054.55362468 -.00000336  00000+0  00000+0 0  9997
2 56759   2.4414 248.9623 0008069  38.7031 194.5746  1.00269534  9979
NUSANTARA TIGA (SATRIA) 
1 57045U 23086A   26054.55739256 -.00000234  00000+0  00000+0 0  9997
2 57045   0.0484 313.9823 0006047   7.7037 178.3980  1.00269179  8626
H2SAT (HEINRICH HERTZ)  
1 57213U 23093A   26054.31414635  .00000002  00000+0  00000+0 0  9999
2 57213   0.0456 294.3037 0001158 226.2813 106.3988  1.00263598  9774
SYRACUSE 4B             
1 57214U 23093B   26054.31267301 -.00000052  00000+0  00000+0 0  9992
2 57214   0.0186 129.7757 0000161 176.0041 313.4839  1.00270613  5827
JUPITER 3 (ECHOSTAR 24) 
1 57479U 23108A   26053.84013906 -.00000147  00000+0  00000+0 0  9994
2 57479   0.0143 113.7950 0001122 216.8020  29.3770  1.00271600  9502
GALAXY 37 (G-37)        
1 57493U 23112A   26054.21751256  .00000050  00000+0  00000+0 0  9996
2 57493   0.0177  93.7829 0002054 239.6673 130.9409  1.00271849  9401
LUDI TANCE-4 01A        
1 57624U 23120A   26053.85191844 -.00000180  00000+0  00000+0 0  9996
2 57624  15.1830 196.8013 0005705 104.7359 247.5920  1.00270224  9396
TJS-10                  
1 58204U 23169A   26054.76026240 -.00000337  00000+0  00000+0 0  9996
2 58204   2.2504  81.8833 0011322 230.8559 251.5963  0.99769389  8409
ZHONGXING-6E            
1 58253U 23172A   26054.55085133 -.00000360  00000+0  00000+0 0  9993
2 58253   0.0177 151.9630 0002419 188.7254 126.5759  1.00272591  8523
YAOGAN-41               
1 58582U 23197A   26054.55232466 -.00000359  00000+0  00000+0 0  9996
2 58582   3.3401 311.4597 0009665 183.5139 340.5028  1.00268104  8188
OVZON-3                 
1 58698U 24003A   26053.76794072  .00000056  00000+0  00000+0 0  9992
2 58698   0.0150 160.3925 0000222 359.4167 328.9696  1.00264979  6301
INSAT-3DS               
1 58990U 24033A   26054.54417797 -.00000155  00000+0  00000+0 0  9994
2 58990   0.0762 266.3528 0002113  76.7268  88.3387  1.00273451 45923
MERAH PUTIH 2           
1 58995U 24035A   26054.52544642 -.00000356  00000+0  00000+0 0  9992
2 58995   0.0171 111.1197 0001243 219.5838 124.8081  1.00270763  7449
TJS-11                  
1 59020U 24037A   26053.69594183 -.00000362  00000+0  00000+0 0  9993
2 59020   4.3536 325.6757 0005975  31.2902 166.5157  1.00269085  7433
HULIANWAN GAOGUI-01 (H*)
1 59069U 24040A   26054.53464460  .00000157  00000+0  00000+0 0  9999
2 59069   0.0565 310.2664 0004041  39.8981  29.3661  1.00269823  6189
